P/2012 F2 (PANSTARRS),e,14.6904,226.8081,33.3023,6.351747,0.0615693,0.54200094,297.4333,06/05.0/2026,2000,g 12.0,4.0
# From MPC194128
P/2012 G1 (PANSTARRS),e,12.1688,283.2267,266.0213,4.161026,0.1161191,0.33009601,240.8899,06/05.0/2026,2000,g 15.0,4.0
# From MPC194128
C/2012 K1 (PANSTARRS),e,142.6754,317.7936,203.2075,11788,0.0000008,0.99990947,0.0000,08/22.4759/2014,2000,g  5.6,3.2
# From MPC194128
P/2012 K3 (Gibbs),e,13.1787,125.8019,172.1007,3.634191,0.1422632,0.42182349,354.1952,06/05.0/2026,2000,g 15.0,4.0
# From MPC194128
C/2012 K8 (Lemmon),h,08/20.5294/2014,105.9526,312.7243,75.8640,1.000859,6.457027,2000,6.0,4.0
# From MPC194129
C/2012 LP26 (Palomar),h,08/12.1964/2015,25.3615,154.1101,145.2657,1.001156,6.566926,2000,6.5,4.0
# From MPC194129
P/2012 O1 (McNaught),e,7.4229,91.8926,238.3251,3.542928,0.1477953,0.59351477,31.7800,06/05.0/2026,2000,g 17.5,4.0
# From MPC194129
P/2012 O2 (McNaught),e,24.4474,120.6533,183.3936,3.630750,0.1424655,0.53129973,9.2085,06/05.0/2026,2000,g 17.0,4.0
# From MPC194129
C/2012 Q1 (Kowalski),e,45.1746,184.4411,139.4954,26.20009,0.0073494,0.63600383,38.4768,06/05.0/2026,2000,g  4.0,4.0
# From MPC194129
P/2012 T3 (PANSTARRS),e,9.5203,114.1398,196.8244,6.025976,0.0666290,0.60514002,343.3257,06/05.0/2026,2000,g 15.0,4.0
# From MPC194130
C/2012 X1 (LINEAR),e,44.2676,113.4816,131.9891,158.3916,0.0004944,0.98983335,0.0000,02/15.7923/2014,2000,g  4.8,3.6
# From MPC194130
C/2013 A1 (SidingSpring),h,10/27.3114/2014,128.6844,301.1854,2.5524,1.000125,1.392325,2000,8.2,2.4
# From MPC194131
C/2013 C2 (Tenagra),e,21.3697,247.5680,308.7399,15.87454,0.0155830,0.42618904,61.2610,06/05.0/2026,2000,g  4.0,4.0
# From MPEC 2013-Y32
P/2013 CU129 (PANSTARRS),e,11.8132,45.5982,213.0147,2.904816,0.1990793,0.71541635,223.3145,06/05.0/2026,2000,g 18.0,2.0
# From MPC194131
C/2013 E1 (McNaught),e,158.7085,133.8751,311.3071,6420,0.0000019,0.99878990,0.0000,06/09.2469/2013,2000,g  5.5,4.0
# From MPC194131
P/2013 G1 (Kowalski),e,5.4559,221.2649,51.3018,6.911425,0.0542441,0.51035584,248.7746,06/05.0/2026,2000,g 11.0,4.0
# From MPC194132
P/2013 J2 (McNaught),e,15.4890,289.2248,37.8611,6.234134,0.0633199,0.65563967,295.8808,06/05.0/2026,2000,g 13.0,4.0
# From MPC194133
C/2013 P3 (Palomar),h,11/25.0307/2014,93.8427,177.3165,177.4028,1.002081,8.685979,2000,5.5,4.0
# From MPC194133
C/2013 P4 (PANSTARRS),e,4.2601,256.3819,114.0133,14.78314,0.0173402,0.59370678,74.8845,06/05.0/2026,2000,g  7.5,4.0
# From MPC194134
P/2013 R3 (Catalina-PANSTARRS),e,0.8669,341.6498,11.3791,3.028491,0.1870099,0.27880981,150.6771,06/05.0/2026,2000,g 14.0,4.0
# From MPC194134
P/2013 R3-A,e,0.8659,341.5965,11.4651,3.028241,0.1870331,0.27873521,150.7668,06/05.0/2026,2000,g 14.3,4.0
# From MPC194134
P/2013 R3-B,e,0.8677,341.6640,11.4119,3.028489,0.1870101,0.27875244,150.6534,06/05.0/2026,2000,g 14.5,4.0
# From MPC194134
P/2013 T1 (PANSTARRS),e,24.2674,10.0358,346.1868,5.857296,0.0695278,0.62337240,325.5459,06/05.0/2026,2000,g 16.5,4.0
# From MPC194134
P/2013 T2 (Schwartz),e,9.4471,0.7758,345.5796,3.493371,0.1509513,0.50005665,359.0472,06/05.0/2026,2000,g 16.0,4.0
# From MPC194135
C/2013 US10 (Catalina),h,11/11.9967/2015,148.9283,186.1512,340.1961,1.000156,0.814612,2000,4.4,4.0
# From MPC194135
C/2013 V4 (Catalina),h,10/10.4861/2015,67.9608,55.5444,40.4810,1.000542,5.186212,2000,6.0,4.0
# From MPC194135
P/2013 W1 (PANSTARRS),e,4.7009,117.8449,1.2754,3.483399,0.1516000,0.59394737,316.9219,06/05.0/2026,2000,g 17.5,4.0
# From MPC194135
C/2013 W2 (PANSTARRS),e,4.8499,178.2759,303.9012,9.614577,0.0330605,0.54786570,138.9981,06/05.0/2026,2000,g 13.5,2.0
# From MPC194135
C/2013 X1 (PANSTARRS),h,04/24.4371/2016,163.0537,132.0355,165.4842,1.000920,1.306091,2000,10.5,2.0
# From MPC194136
P/2013 YG46 (Spacewatch),e,7.0457,37.1076,254.9198,3.240674,0.1689472,0.48013442,204.1863,06/05.0/2026,2000,g 10.0,4.0
# From MPC194136
P/2014 A2 (Hill),e,24.5648,106.6431,356.2630,5.917205,0.0684745,0.64664618,315.6026,06/05.0/2026,2000,g 15.0,4.0
# From MPC194136
C/2014 A4 (SONEAR),h,09/05.3067/2015,121.3475,29.6711,356.9342,1.000003,4.208672,2000,6.0,4.0
# From MPC194136
C/2014 B1 (Schwartz),h,09/10.1696/2017,28.3827,161.2848,345.7791,1.000756,9.538177,2000,4.0,4.0
# From MPC194136
P/2014 C1 (TOTAS),e,3.1916,39.5100,187.8794,4.043761,0.1212065,0.33875226,267.9485,06/05.0/2026,2000,g 15.5,4.0
# From MPC194137
C/2014 F3 (Sheppard-Trujillo),e,6.5207,325.9906,5.0718,14.35669,0.0181185,0.60073370,33.2671,06/05.0/2026,2000,g  6.0,4.0
# From MPC194137
P/2014 L2 (NEOWISE),e,5.1858,149.3018,182.6682,6.316644,0.0620833,0.64580874,269.8787,06/05.0/2026,2000,g 12.0,4.0
# From MPC194138
C/2014 M2 (Christensen),e,32.3362,245.3760,40.8582,1299,0.0000211,0.99466018,0.0000,07/13.2368/2014,2000,g  6.0,4.0
# From MPC194138
P/2014 O3 (PANSTARRS),e,7.7889,87.6235,204.4898,7.589846,0.0471362,0.38244741,209.9613,06/05.0/2026,2000,g 10.5,4.0
# From MPC194138
C/2014 OE4 (PANSTARRS),e,81.2773,240.4519,65.8751,28940,0.0000002,0.99978345,0.0000,12/05.4747/2016,2000,g 11.0,2.0
# From MPC191585
C/2014 OG392 (PANSTARRS),e,9.0317,145.8329,255.5748,12.25094,0.0229853,0.18439803,36.9170,06/05.0/2026,2000,g  6.0,4.0
# From MPC194139
C/2014 R3 (PANSTARRS),h,08/08.7727/2016,90.7606,333.9834,113.3607,1.000069,7.264002,2000,6.5,4.0
# From MPC194139
P/2014 U4 (PANSTARRS),e,6.4207,11.8866,347.8418,3.513481,0.1496572,0.46341240,290.2690,06/05.0/2026,2000,g 18.0,4.0
# From MPEC 2026-KB8
C/2014 UN271 (Bernardinelli-Bernstein),h,01/16.3826/2031,95.4462,189.9977,326.0841,1.004219,10.960035,2000,2.5,3.2
# From MPC194139
P/2014 V1 (PANSTARRS),e,22.4894,166.1902,177.9804,5.363046,0.0793573,0.52425195,329.1050,06/05.0/2026,2000,g 14.0,4.0
# From MPC194140
P/2014 W4 (PANSTARRS),e,15.2787,33.3081,67.8096,6.577996,0.0584203,0.35523898,221.8217,06/05.0/2026,2000,g 11.0,4.0
# From MPC194141
P/2015 B1 (PANSTARRS),e,18.1006,352.8357,188.6536,9.469582,0.0338227,0.36752771,132.6530,06/05.0/2026,2000,g  8.5,4.0
# From MPC194142
C/2015 D2 (PANSTARRS),e,31.9086,162.6848,292.4117,12.80224,0.0215167,0.56185394,99.5259,06/05.0/2026,2000,g  8.0,4.0
# From MPC194142
C/2015 D3 (PANSTARRS),e,128.5731,156.8786,2.6542,15368,0.0000005,0.99947038,0.0000,04/25.1834/2016,2000,g  5.5,4.0
# From MPC194142
P/2015 D5 (Kowalski),e,20.5425,74.0724,39.6959,8.943902,0.0368480,0.49201773,163.4189,06/05.0/2026,2000,g  9.0,4.0
# From MPC194142
P/2015 D6 (Lemmon-PANSTARRS),e,20.3793,45.1695,126.0918,7.116185,0.0519198,0.36327480,207.0588,06/05.0/2026,2000,g 10.5,4.0
# From MPC194142
C/2015 ER61 (PANSTARRS),e,6.3126,234.9901,68.7271,461.4597,0.0000994,0.99769667,0.0000,05/04.8531/2017,2000,g 11.0,2.0
# From MPC194144
P/2015 M2 (PANSTARRS),e,3.9675,86.5687,225.5542,7.255660,0.0504300,0.17782345,198.6978,06/05.0/2026,2000,g  8.5,4.0
# From MPEC 2021-P47
C/2015 O1 (PANSTARRS),h,02/17.5106/2018,27.1028,299.7003,89.8716,1.001690,3.750075,2000,6.5,4.0
# From MPC194144
P/2015 PD229 (Cameron-ISON),e,2.0188,342.7079,352.6202,7.211491,0.0508940,0.32445906,201.4992,06/05.0/2026,2000,g 11.5,2.0
# From MPC194144
P/2015 R2 (PANSTARRS),e,15.5701,168.5609,149.7825,4.494713,0.1034311,0.45245572,53.6038,06/05.0/2026,2000,g 14.5,4.0
# From MPC194145
C/2015 T5 (Sheppard-Tholen),e,11.0171,311.1716,62.2874,28.41108,0.0065084,0.66950685,24.6022,06/05.0/2026,2000,g  7.5,4.0
# From MPC194145
P/2015 TP200 (LINEAR),e,8.7721,6.8570,82.6905,7.264248,0.0503406,0.53713035,176.1538,06/05.0/2026,2000,g 11.0,4.0
# From MPC194145
C/2015 V1 (PANSTARRS),e,139.1725,197.2883,179.9631,35310,0.0000001,0.99987855,0.0000,12/19.2777/2017,2000,g  6.5,4.0
# From MPC194145
C/2015 V2 (Johnson),h,06/09.3540/2017,49.7678,70.0716,164.6829,1.000831,1.632059,2000,5.0,4.0
# From MPC194145
C/2015 V4 (PANSTARRS),e,60.7565,179.7946,306.7943,18.44499,0.0124419,0.70549255,44.3545,06/05.0/2026,2000,g  8.5,4.0
# From MPC194146
C/2015 XY1 (Lemmon),h,04/27.3321/2018,148.8566,281.5074,196.3581,1.000422,7.958466,2000,5.5,4.0
# From MPC194146
P/2015 X3 (PANSTARRS),e,24.4206,77.2474,307.0084,4.994288,0.0883067,0.43949181,347.5674,06/05.0/2026,2000,g 15.0,4.0
# From MPC194146
C/2015 X5 (PANSTARRS),e,124.3820,122.1932,27.6898,220822,0.0000000,0.99996911,0.0000,12/27.8770/2017,2000,g  7.5,4.0
# From MPC194146
P/2015 X6 (PANSTARRS),e,4.5666,106.9217,329.4737,2.751484,0.2159502,0.17399883,84.2675,06/05.0/2026,2000,g 16.0,4.0
# From MPC194147
C/2016 A1 (PANSTARRS),e,121.2879,128.0176,10.1782,7258,0.0000016,0.99926438,0.0000,11/19.5173/2017,2000,g  6.0,4.0
# From MPC194147
P/2016 A3 (PANSTARRS),e,8.5277,187.0950,340.8348,7.864770,0.0446864,0.38765900,148.5345,06/05.0/2026,2000,g 10.0,4.0
# From MPC194147
P/2016 A7 (PANSTARRS),e,16.1086,219.7874,353.2289,5.083755,0.0859859,0.56857188,329.2951,06/05.0/2026,2000,g 16.0,4.0
# From MPC194147
C/2016 C1 (PANSTARRS),h,02/18.6496/2016,56.2007,181.7017,328.5549,1.001739,8.431299,2000,5.5,4.0
# From MPC194147
C/2016 E1 (PANSTARRS),h,05/27.0318/2017,131.8816,233.1312,47.2285,1.001293,8.162828,2000,6.5,4.0
# From MPC194148
P/2016 G1 (PANSTARRS),e,10.9700,204.0071,111.0972,2.583404,0.2373644,0.20980662,91.3591,06/05.0/2026,2000,g 14.0,4.0
# From MPC194148
C/2016 M1 (PANSTARRS),e,90.7487,92.2956,209.8276,1988,0.0000111,0.99888774,0.0000,08/07.4492/2018,2000,g  5.0,4.0
# From MPC194148
C/2016 N6 (PANSTARRS),e,105.9442,298.7212,162.6964,1033,0.0000297,0.99740867,0.0000,07/16.0352/2018,2000,g  7.0,4.0
# From MPC194148
P/2016 P1 (PANSTARRS),e,25.8412,318.7669,268.6558,3.242529,0.1688023,0.28923361,303.7635,06/05.0/2026,2000,g 15.0,4.0
# From MPC191585
P/2016 P5 (COIAS),e,7.0398,185.3581,33.6079,4.698932,0.0967621,0.05758564,107.5932,06/05.0/2026,2000,g 13.2,4.0
# From MPC194148
C/2016 Q2 (PANSTARRS),h,05/10.5951/2021,109.3057,322.3547,84.5090,1.001305,7.080593,2000,6.0,4.0
# From MPC194148
C/2016 Q4 (Kowalski),e,7.2371,271.2807,100.0227,17.04037,0.0140115,0.58167851,42.7060,06/05.0/2026,2000,g  7.0,4.0
# From MPC194149
C/2016 R2 (PANSTARRS),e,58.3823,80.4919,33.1778,587.3874,0.0000692,0.99557849,0.0000,05/12.0808/2018,2000,g  7.0,4.0
# From MPC194149
